LANDSAT 9               
1 49260U 21088A   26066.15411567  .00000479  00000+0  11637-3 0  9990
2 49260  98.1943 137.9813 0001148  91.1765 268.9565 14.57122088236147
CSG-2                   
1 51444U 22008A   26066.14418919  .00000997  00000+0  13176-3 0  9992
2 51444  97.8857 251.2162 0001399  79.3020 280.8351 14.82157217221477
GAOFEN-12 03            
1 52912U 22069A   26066.23057204  .00000950  00000+0  13280-3 0  9991
2 52912  97.8413 316.6099 0002224  93.9602 266.1864 14.79844119199534
SWOT                    
1 54754U 22173A   26066.09451218  .00000069  00000+0  48774-4 0  9998
2 54754  77.6120 173.1234 0000531 265.1628  94.9463 14.00168992164860
GAOFEN-12 04            
1 57654U 23123A   26066.19180701  .00001842  00000+0  25031-3 0  9993
2 57654  97.9131 345.6907 0001677  76.6340 283.5058 14.79995148137548
PARS 1                  
1 59065U 24039Q   26066.21651054  .00015895  00000+0  35737-3 0  9992
2 59065  97.4755  44.1494 0011905 117.8212 242.4244 15.43344055112907
RESURS-P 4              
1 59371U 24061A   26066.19990763  .00005507  00000+0  17572-3 0  9993
2 59371  97.2656  15.9026 0002583  61.8936 298.2567 15.32900476108146
LEGION 1                
1 59625U 24081A   26066.16355832  .00006009  00000+0  30319-3 0  9998
2 59625  97.5073 145.0831 0005276  28.5661 331.5860 15.17481208102073
LEGION 2                
1 59626U 24081B   26066.20087670  .00005062  00000+0  26274-3 0  9999
2 59626  97.5074 145.2005 0010466 354.2495   5.8616 15.16532553102081
ALOS-4 (DAICHI-4)       
1 60182U 24123A   26066.23581535  .00000756  00000+0  10815-3 0  9996
2 60182  97.9196 164.8712 0001466 102.3033 257.8343 14.79472606 90803
LEGION 3                
1 60452U 24146A   26065.91008348  .00006268  00000+0  33249-3 0  9991
2 60452  45.0006 218.8216 0013729 305.1246  54.8346 15.16112564 86506
LEGION 4                
1 60453U 24146B   26066.10599227  .00005590  00000+0  29783-3 0  9990
2 60453  45.0029 309.6219 0009389  88.2308 271.9646 15.16169640 85386
SENTINEL-2C             
1 60989U 24157A   26066.14458487  .00000155  00000+0  75610-4 0  9995
2 60989  98.5682 142.3907 0000717  97.0657 263.0607 14.30812922 78390
IONOSFERA-M 1           
1 61735U 24199A   26066.15019028  .00000067  00000+0  49778-4 0  9994
2 61735  98.7330 300.3168 0002105  79.4868 280.6547 14.22734692113192
IONOSFERA-M 2           
1 61736U 24199B   26066.18469467  .00000062  00000+0  47571-4 0  9998
2 61736  98.7328 300.2626 0000227 102.8289 257.2914 14.22737136116321
BIOMASS                 
1 63772U 25090A   26066.09821991  .00000369  00000+0  73546-4 0  9996
2 63772  98.0749 254.8834 0001262  94.3328 265.8021 14.67533518 45712
GOSAT-GW (IBUKI GW)     
1 64694U 25141A   26065.03170329  .00001220  00000+0  22342-3 0  9996
2 64694  98.0502   4.0681 0001432  83.7124 276.4243 14.67568283 36714
