[{"OBJECT_NAME":"LANDSAT 9","OBJECT_ID":"2021-088A","EPOCH":"2026-03-07T03:41:55.593888","MEAN_MOTION":14.57122088,"ECCENTRICITY":0.0001148,"INCLINATION":98.1943,"RA_OF_ASC_NODE":137.9813,"ARG_OF_PERICENTER":91.1765,"MEAN_ANOMALY":268.9565,"EPHEMERIS_TYPE":0,"CLASSIFICATION_TYPE":"U","NORAD_CAT_ID":49260,"ELEMENT_SET_NO":999,"REV_AT_EPOCH":23614,"BSTAR":0.00011637,"MEAN_MOTION_DOT":4.79e-6,"MEAN_MOTION_DDOT":0},{"OBJECT_NAME":"CSG-2","OBJECT_ID":"2022-008A","EPOCH":"2026-03-07T03:27:37.946016","MEAN_MOTION":14.82157217,"ECCENTRICITY":0.0001399,"INCLINATION":97.8857,"RA_OF_ASC_NODE":251.2162,"ARG_OF_PERICENTER":79.302,"MEAN_ANOMALY":280.8351,"EPHEMERIS_TYPE":0,"CLASSIFICATION_TYPE":"U","NORAD_CAT_ID":51444,"ELEMENT_SET_NO":999,"REV_AT_EPOCH":22147,"BSTAR":0.00013176,"MEAN_MOTION_DOT":9.97e-6,"MEAN_MOTION_DDOT":0},{"OBJECT_NAME":"GAOFEN-12 03","OBJECT_ID":"2022-069A","EPOCH":"2026-03-07T05:32:01.424256","MEAN_MOTION":14.79844119,"ECCENTRICITY":0.0002224,"INCLINATION":97.8413,"RA_OF_ASC_NODE":316.6099,"ARG_OF_PERICENTER":93.9602,"MEAN_ANOMALY":266.1864,"EPHEMERIS_TYPE":0,"CLASSIFICATION_TYPE":"U","NORAD_CAT_ID":52912,"ELEMENT_SET_NO":999,"REV_AT_EPOCH":19953,"BSTAR":0.0001328,"MEAN_MOTION_DOT":9.5e-6,"MEAN_MOTION_DDOT":0},{"OBJECT_NAME":"SWOT","OBJECT_ID":"2022-173A","EPOCH":"2026-03-07T02:16:05.852352","MEAN_MOTION":14.00168992,"ECCENTRICITY":5.31e-5,"INCLINATION":77.612,"RA_OF_ASC_NODE":173.1234,"ARG_OF_PERICENTER":265.1628,"MEAN_ANOMALY":94.9463,"EPHEMERIS_TYPE":0,"CLASSIFICATION_TYPE":"U","NORAD_CAT_ID":54754,"ELEMENT_SET_NO":999,"REV_AT_EPOCH":16486,"BSTAR":4.8774e-5,"MEAN_MOTION_DOT":6.9e-7,"MEAN_MOTION_DDOT":0},{"OBJECT_NAME":"GAOFEN-12 04","OBJECT_ID":"2023-123A","EPOCH":"2026-03-07T04:36:12.125664","MEAN_MOTION":14.79995148,"ECCENTRICITY":0.0001677,"INCLINATION":97.9131,"RA_OF_ASC_NODE":345.6907,"ARG_OF_PERICENTER":76.634,"MEAN_ANOMALY":283.5058,"EPHEMERIS_TYPE":0,"CLASSIFICATION_TYPE":"U","NORAD_CAT_ID":57654,"ELEMENT_SET_NO":999,"REV_AT_EPOCH":13754,"BSTAR":0.00025031,"MEAN_MOTION_DOT":1.842e-5,"MEAN_MOTION_DDOT":0},{"OBJECT_NAME":"PARS 1","OBJECT_ID":"2024-039Q","EPOCH":"2026-03-07T05:11:46.510656","MEAN_MOTION":15.43344055,"ECCENTRICITY":0.0011905,"INCLINATION":97.4755,"RA_OF_ASC_NODE":44.1494,"ARG_OF_PERICENTER":117.8212,"MEAN_ANOMALY":242.4244,"EPHEMERIS_TYPE":0,"CLASSIFICATION_TYPE":"U","NORAD_CAT_ID":59065,"ELEMENT_SET_NO":999,"REV_AT_EPOCH":11290,"BSTAR":0.00035737,"MEAN_MOTION_DOT":0.00015895,"MEAN_MOTION_DDOT":0},{"OBJECT_NAME":"RESURS-P 4","OBJECT_ID":"2024-061A","EPOCH":"2026-03-07T04:47:52.019232","MEAN_MOTION":15.32900476,"ECCENTRICITY":0.0002583,"INCLINATION":97.2656,"RA_OF_ASC_NODE":15.9026,"ARG_OF_PERICENTER":61.8936,"MEAN_ANOMALY":298.2567,"EPHEMERIS_TYPE":0,"CLASSIFICATION_TYPE":"U","NORAD_CAT_ID":59371,"ELEMENT_SET_NO":999,"REV_AT_EPOCH":10814,"BSTAR":0.00017572,"MEAN_MOTION_DOT":5.507e-5,"MEAN_MOTION_DDOT":0},{"OBJECT_NAME":"LEGION 1","OBJECT_ID":"2024-081A","EPOCH":"2026-03-07T03:55:31.438848","MEAN_MOTION":15.17481208,"ECCENTRICITY":0.0005276,"INCLINATION":97.5073,"RA_OF_ASC_NODE":145.0831,"ARG_OF_PERICENTER":28.5661,"MEAN_ANOMALY":331.586,"EPHEMERIS_TYPE":0,"CLASSIFICATION_TYPE":"U","NORAD_CAT_ID":59625,"ELEMENT_SET_NO":999,"REV_AT_EPOCH":10207,"BSTAR":0.00030319,"MEAN_MOTION_DOT":6.009e-5,"MEAN_MOTION_DDOT":0},{"OBJECT_NAME":"LEGION 2","OBJECT_ID":"2024-081B","EPOCH":"2026-03-07T04:49:15.746880","MEAN_MOTION":15.16532553,"ECCENTRICITY":0.0010466,"INCLINATION":97.5074,"RA_OF_ASC_NODE":145.2005,"ARG_OF_PERICENTER":354.2495,"MEAN_ANOMALY":5.8616,"EPHEMERIS_TYPE":0,"CLASSIFICATION_TYPE":"U","NORAD_CAT_ID":59626,"ELEMENT_SET_NO":999,"REV_AT_EPOCH":10208,"BSTAR":0.00026274,"MEAN_MOTION_DOT":5.062e-5,"MEAN_MOTION_DDOT":0},{"OBJECT_NAME":"ALOS-4 (DAICHI-4)","OBJECT_ID":"2024-123A","EPOCH":"2026-03-07T05:39:34.446240","MEAN_MOTION":14.79472606,"ECCENTRICITY":0.0001466,"INCLINATION":97.9196,"RA_OF_ASC_NODE":164.8712,"ARG_OF_PERICENTER":102.3033,"MEAN_ANOMALY":257.8343,"EPHEMERIS_TYPE":0,"CLASSIFICATION_TYPE":"U","NORAD_CAT_ID":60182,"ELEMENT_SET_NO":999,"REV_AT_EPOCH":9080,"BSTAR":0.00010815,"MEAN_MOTION_DOT":7.56e-6,"MEAN_MOTION_DDOT":0},{"OBJECT_NAME":"LEGION 3","OBJECT_ID":"2024-146A","EPOCH":"2026-03-06T21:50:31.212672","MEAN_MOTION":15.16112564,"ECCENTRICITY":0.0013729,"INCLINATION":45.0006,"RA_OF_ASC_NODE":218.8216,"ARG_OF_PERICENTER":305.1246,"MEAN_ANOMALY":54.8346,"EPHEMERIS_TYPE":0,"CLASSIFICATION_TYPE":"U","NORAD_CAT_ID":60452,"ELEMENT_SET_NO":999,"REV_AT_EPOCH":8650,"BSTAR":0.00033249,"MEAN_MOTION_DOT":6.268e-5,"MEAN_MOTION_DDOT":0},{"OBJECT_NAME":"LEGION 4","OBJECT_ID":"2024-146B","EPOCH":"2026-03-07T02:32:37.732128","MEAN_MOTION":15.1616964,"ECCENTRICITY":0.0009389,"INCLINATION":45.0029,"RA_OF_ASC_NODE":309.6219,"ARG_OF_PERICENTER":88.2308,"MEAN_ANOMALY":271.9646,"EPHEMERIS_TYPE":0,"CLASSIFICATION_TYPE":"U","NORAD_CAT_ID":60453,"ELEMENT_SET_NO":999,"REV_AT_EPOCH":8538,"BSTAR":0.00029783,"MEAN_MOTION_DOT":5.59e-5,"MEAN_MOTION_DDOT":0},{"OBJECT_NAME":"SENTINEL-2C","OBJECT_ID":"2024-157A","EPOCH":"2026-03-07T03:28:12.132768","MEAN_MOTION":14.30812922,"ECCENTRICITY":7.17e-5,"INCLINATION":98.5682,"RA_OF_ASC_NODE":142.3907,"ARG_OF_PERICENTER":97.0657,"MEAN_ANOMALY":263.0607,"EPHEMERIS_TYPE":0,"CLASSIFICATION_TYPE":"U","NORAD_CAT_ID":60989,"ELEMENT_SET_NO":999,"REV_AT_EPOCH":7839,"BSTAR":7.561e-5,"MEAN_MOTION_DOT":1.55e-6,"MEAN_MOTION_DDOT":0},{"OBJECT_NAME":"IONOSFERA-M 1","OBJECT_ID":"2024-199A","EPOCH":"2026-03-07T03:36:16.440192","MEAN_MOTION":14.22734692,"ECCENTRICITY":0.0002105,"INCLINATION":98.733,"RA_OF_ASC_NODE":300.3168,"ARG_OF_PERICENTER":79.4868,"MEAN_ANOMALY":280.6547,"EPHEMERIS_TYPE":0,"CLASSIFICATION_TYPE":"U","NORAD_CAT_ID":61735,"ELEMENT_SET_NO":999,"REV_AT_EPOCH":11319,"BSTAR":4.9778e-5,"MEAN_MOTION_DOT":6.7e-7,"MEAN_MOTION_DDOT":0},{"OBJECT_NAME":"IONOSFERA-M 2","OBJECT_ID":"2024-199B","EPOCH":"2026-03-07T04:25:57.619488","MEAN_MOTION":14.22737136,"ECCENTRICITY":2.27e-5,"INCLINATION":98.7328,"RA_OF_ASC_NODE":300.2626,"ARG_OF_PERICENTER":102.8289,"MEAN_ANOMALY":257.2914,"EPHEMERIS_TYPE":0,"CLASSIFICATION_TYPE":"U","NORAD_CAT_ID":61736,"ELEMENT_SET_NO":999,"REV_AT_EPOCH":11632,"BSTAR":4.7571e-5,"MEAN_MOTION_DOT":6.2e-7,"MEAN_MOTION_DDOT":0},{"OBJECT_NAME":"BIOMASS","OBJECT_ID":"2025-090A","EPOCH":"2026-03-07T02:21:26.200224","MEAN_MOTION":14.67533518,"ECCENTRICITY":0.0001262,"INCLINATION":98.0749,"RA_OF_ASC_NODE":254.8834,"ARG_OF_PERICENTER":94.3328,"MEAN_ANOMALY":265.8021,"EPHEMERIS_TYPE":0,"CLASSIFICATION_TYPE":"U","NORAD_CAT_ID":63772,"ELEMENT_SET_NO":999,"REV_AT_EPOCH":4571,"BSTAR":7.3546e-5,"MEAN_MOTION_DOT":3.69e-6,"MEAN_MOTION_DDOT":0},{"OBJECT_NAME":"GOSAT-GW (IBUKI GW)","OBJECT_ID":"2025-141A","EPOCH":"2026-03-06T00:45:39.164256","MEAN_MOTION":14.67568283,"ECCENTRICITY":0.00014327,"INCLINATION":98.0502,"RA_OF_ASC_NODE":4.0681,"ARG_OF_PERICENTER":83.7124,"MEAN_ANOMALY":276.4243,"EPHEMERIS_TYPE":0,"CLASSIFICATION_TYPE":"U","NORAD_CAT_ID":64694,"ELEMENT_SET_NO":999,"REV_AT_EPOCH":3671,"BSTAR":0.00022341843,"MEAN_MOTION_DOT":1.22e-5,"MEAN_MOTION_DDOT":0}]
